C/2015 P3 (SWAN),e,58.1955,88.0070,133.1316,267.3742,0.0002254,0.99729384,0.0000,07/27.2793/2015,2000,g 15.5,4.0
# From MPC 99819
P/2015 P4 (PANSTARRS),e,8.7179,104.7679,280.5763,6.050802,0.0662193,0.58431032,109.3097,07/27.0/2020,2000,g 14.0,4.0
# From MPC102952
P/2015 PD229 (Cameron-ISON),e,2.0261,342.6404,352.3831,7.180221,0.0512268,0.32807971,92.6190,07/27.0/2020,2000,g 11.5,2.0
# From MPC 99819
P/2015 Q1 (Scotti),e,22.3908,202.9855,199.8567,3.471549,0.1523769,0.47850952,273.6572,07/27.0/2020,2000,g 14.0,4.0
# From MPC 96867
P/2015 Q2 (Pimentel),e,146.4796,228.3927,244.4425,7.345796,0.0495046,0.75105214,88.4118,07/27.0/2020,2000,g 15.5,4.0
# From MPC 98562
P/2015 R1 (PANSTARRS),e,22.6756,48.4593,300.3962,5.880774,0.0691118,0.63387968,128.3156,07/27.0/2020,2000,g 14.0,4.0
# From MPC 95734
P/2015 R2 (PANSTARRS),e,15.4760,168.6052,149.7269,4.488997,0.1036287,0.45273302,194.0451,07/27.0/2020,2000,g 14.5,4.0
# From MPC117068
C/2015 T2 (PANSTARRS),e,124.5493,51.0394,30.6599,2265,0.0000091,0.99693805,0.0000,05/18.6432/2017,2000,g  8.0,4.0
# From MPC 96280
P/2015 T3 (PANSTARRS),e,13.0937,120.5019,178.6330,4.326181,0.1095335,0.50818108,359.9227,12/21.0/2014,2000,g 14.0,4.0
# From MPC102953
C/2015 T4 (PANSTARRS),e,87.9749,251.8096,270.0647,80.01884,0.0013769,0.97127655,0.0000,06/17.1563/2016,2000,g 11.0,4.0
# From MPC102097
C/2015 T5 (Sheppard-Tholen),e,11.0501,311.0719,61.8166,28.11129,0.0066128,0.66803216,10.8933,07/27.0/2020,2000,g  7.5,4.0
# From MPC102953
P/2015 TO19 (Lemmon-PANSTARRS),e,6.4995,321.6494,89.1589,4.556965,0.1013189,0.35787798,162.5946,07/27.0/2020,2000,g 14.0,4.0
# From MPC110080
P/2015 TP200 (LINEAR),e,8.7752,6.9881,82.6737,7.279078,0.0501868,0.53486678,68.6953,07/27.0/2020,2000,g 11.0,4.0
# From MPC101097
C/2015 TQ209 (LINEAR),e,11.3029,223.3583,282.1759,630.9096,0.0000622,0.99775519,0.0000,08/25.8220/2016,2000,g 10.5,4.0
# From MPC115881
C/2015 V1 (PANSTARRS),e,139.2237,197.1897,179.6198,3029,0.0000059,0.99859089,0.0000,12/17.1254/2017,2000,g  6.5,4.0
# From MPC112390
C/2015 V2 (Johnson),h,06/12.0843/2017,49.8666,69.8726,164.9940,1.001875,1.642560,2000,5.0,4.0
# From MPC102953
C/2015 V3 (PANSTARRS),e,86.2491,2.2377,0.7182,630.0916,0.0000623,0.99328350,0.0000,11/24.0083/2015,2000,g  9.0,4.0
# From MPC104791
C/2015 V4 (PANSTARRS),e,60.7750,179.9233,307.0189,18.48986,0.0123966,0.70455770,17.7082,07/27.0/2020,2000,g  8.5,4.0
# From MPC115881
C/2015 VL62 (Lemmon-Yeung-PANSTARRS),h,08/27.9502/2017,165.8154,95.0920,128.7507,1.001115,2.715657,2000,8.0,4.0
# From MPC102098
C/2015 WZ (PANSTARRS),e,134.5920,40.1610,66.7012,146.4890,0.0005559,0.99058416,0.0000,04/13.8414/2016,2000,g 15.0,4.0
# From MPC109142
C/2015 W1 (Gibbs),e,87.3639,114.3163,48.1860,5147,0.0000027,0.99956420,0.0000,05/14.4271/2016,2000,g 13.0,4.0
# From MPC101098
P/2015 W2 (Catalina),e,11.6070,294.2580,117.5238,7.298436,0.0499873,0.63357098,88.0650,07/27.0/2020,2000,g 13.0,4.0
# From MPC101098
P/2015 X1 (PANSTARRS),e,12.1516,161.7731,218.9611,3.631117,0.1424438,0.41895788,249.9806,07/27.0/2020,2000,g 16.0,4.0
# From MPEC 2020-AA5
C/2015 XY1 (Lemmon),h,04/28.1688/2018,148.8557,281.6254,196.2544,1.003394,7.924873,2000,5.5,4.0
# From MPC100281
C/2015 X2 (Catalina),e,72.0727,101.0988,42.3470,15.79792,0.0156965,0.87803799,26.4131,07/27.0/2020,2000,g 16.0,4.0
# From MPC 97498
P/2015 X3 (PANSTARRS),e,24.3838,77.3261,306.6516,5.010689,0.0878735,0.43851142,159.5355,07/27.0/2020,2000,g 15.0,4.0
# From MPC109142
C/2015 X4 (Elenin),e,29.5033,262.6127,176.2308,17.94523,0.0129652,0.81110529,22.4123,07/27.0/2020,2000,g 10.0,4.0
# From MPC119995
C/2015 X5 (PANSTARRS),h,12/29.7976/2017,124.3082,122.3469,27.6802,1.002393,6.798392,2000,7.5,4.0
# From MPC115881
P/2015 X6 (PANSTARRS),e,4.5648,106.9465,329.8777,2.752855,0.2157889,0.17243554,342.2717,07/27.0/2020,2000,g 16.0,4.0
# From MPC109143
C/2015 X7 (ATLAS),e,57.5610,139.9236,348.4215,67914,0.0000001,0.99994576,0.0000,07/29.3292/2016,2000,g  9.0,4.0
# From MPC107048
C/2015 X8 (NEOWISE),e,155.1907,191.1578,20.4050,19.75493,0.0112251,0.94005419,19.5052,07/27.0/2020,2000,g 16.0,4.0
# From MPC109143
C/2015 Y1 (LINEAR),e,71.1659,135.8171,24.6790,248.9421,0.0002509,0.98989090,0.0000,05/13.9213/2016,2000,g 12.0,4.0
# From MPC105543
C/2015 YG1 (NEOWISE),e,57.2880,350.5558,102.4819,16.99750,0.0140646,0.87852319,24.8136,07/27.0/2020,2000,g 13.0,4.0
# From MPC119995
C/2016 A1 (PANSTARRS),h,11/22.7933/2017,121.2052,128.2070,10.2655,1.001661,5.324268,2000,6.0,4.0
# From MPC100282
P/2016 A2 (Christensen),e,26.4069,291.6141,141.5769,4.750129,0.0952020,0.27093685,177.4457,07/27.0/2020,2000,g 11.5,4.0
# From MPC115881
P/2016 A3 (PANSTARRS),e,8.5106,187.2824,340.9333,7.890305,0.0444696,0.38765564,52.6738,07/27.0/2020,2000,g 10.0,4.0
# From MPC109143
C/2016 A5 (PANSTARRS),e,40.2406,136.1873,321.4879,637.7927,0.0000612,0.99538734,0.0000,06/26.7401/2015,2000,g 13.5,4.0
# From MPC109143
C/2016 A6 (PANSTARRS),e,120.9354,300.3786,141.0442,205.7984,0.0003338,0.98831949,0.0000,11/06.4839/2015,2000,g 15.0,4.0
# From MPC102098
P/2016 A7 (PANSTARRS),e,16.6248,221.4825,352.6313,5.031259,0.0873352,0.56542950,140.9679,07/27.0/2020,2000,g 16.0,4.0
# From MPC106345
C/2016 A8 (LINEAR),e,148.2429,111.3315,130.3836,34.28357,0.0049099,0.94495278,7.0096,07/27.0/2020,2000,g 12.0,4.0
# From MPC107048
C/2016 B1 (NEOWISE),e,50.4611,231.9882,8.6806,442.8410,0.0001058,0.99274142,0.0000,12/04.7393/2016,2000,g  9.5,4.0
# From MPC109143
P/2016 BA14 (PANSTARRS),e,18.8948,180.5326,351.9011,3.024499,0.1873803,0.66521450,299.0392,07/27.0/2020,2000,g 21.0,4.0
# From MPC110494
C/2016 C1 (PANSTARRS),h,02/18.8201/2016,56.2245,181.8088,328.7573,1.002184,8.466126,2000,5.5,4.0
# From MPC101098
C/2016 C2 (NEOWISE),e,38.0683,24.4254,214.5555,65.98805,0.0018387,0.97624868,0.0000,04/19.4570/2016,2000,g 16.0,4.0
# From MPC110494
C/2016 E1 (PANSTARRS),h,06/04.2892/2017,131.8902,233.0666,47.4718,1.005948,8.179795,2000,6.5,4.0
# From MPC 99821
C/2016 E2 (Kowalski),e,135.9001,186.8765,321.9458,140.2133,0.0005936,0.99232943,0.0000,02/06.9668/2016,2000,g 20.0,4.0
# From MPC102098
P/2016 G1 (PANSTARRS),e,10.9689,204.0591,111.2831,2.582544,0.2374830,0.21100076,303.3805,07/27.0/2020,2000,g 14.0,4.0
# From MPEC 2017-D91
P/2016 J1-A (PANSTARRS),e,14.3249,199.8228,46.8929,3.174025,0.1742964,0.22816969,260.0712,07/27.0/2020,2000,g 16.5,4.0
# From MPEC 2017-A77
P/2016 J1-B (PANSTARRS),e,14.3277,199.8276,46.7841,3.173655,0.1743269,0.22802067,260.1915,07/27.0/2020,2000,g 17.0,4.0
# From MPC101099
C/2016 J2 (Denneau),e,130.3344,186.3815,318.6465,640.3158,0.0000608,0.99762525,0.0000,04/12.2510/2016,2000,g 17.0,4.0
# From MPC102099
C/2016 KA (Catalina),e,104.6889,317.5069,63.2042,7726,0.0000015,0.99930018,0.0000,02/02.4328/2016,2000,g  8.5,4.0
# From MPC104792
C/2016 K1 (LINEAR),e,90.9288,325.6217,18.2888,163315,0.0000000,0.99998595,0.0000,07/13.3653/2016,2000,g 13.0,4.0
# From MPC119995
C/2016 M1 (PANSTARRS),e,90.9978,92.2051,209.8836,4802,0.0000030,0.99953929,0.0000,08/10.3254/2018,2000,g  5.0,4.0
# From MPC115881
C/2016 N4 (MASTER),e,72.6029,353.9993,55.9381,2447,0.0000081,0.99869313,0.0000,09/16.5016/2017,2000,g  8.5,4.0
# From MPC119995
C/2016 N6 (PANSTARRS),e,105.8409,298.9907,162.7519,1658,0.0000146,0.99839116,0.0000,07/18.0849/2018,2000,g  7.0,4.0
# From MPC102099
P/2016 P1 (PANSTARRS),e,24.4557,319.5641,270.0648,3.194490,0.1726242,0.28930926,305.0804,07/27.0/2020,2000,g 15.0,4.0
# From MPC102099
C/2016 P4 (PANSTARRS),e,29.8807,320.7312,356.1807,401.3714,0.0001226,0.98531552,0.0000,10/18.1617/2016,2000,g 10.5,4.0
# From MPC118093
C/2016 Q2 (PANSTARRS),e,109.3889,322.2982,84.5054,28970,0.0000002,0.99975554,0.0000,05/11.5937/2021,2000,g  6.0,4.0
# From MPC102955
C/2016 Q4 (Kowalski),e,7.2573,271.2860,99.4061,16.90737,0.0141772,0.58092358,12.9296,07/27.0/2020,2000,g  7.0,4.0
# From MPC119995
C/2016 R2 (PANSTARRS),e,58.2265,80.5679,33.1769,545.6381,0.0000773,0.99522957,0.0000,05/09.2700/2018,2000,g  7.0,4.0
# From MPC102099
C/2016 R3 (Borisov),e,53.0410,78.6790,118.1966,199.7743,0.0003491,0.99773607,0.0000,10/10.3817/2016,2000,g 18.0,4.0
# From MPC109144
P/2016 R4 (Gibbs),e,10.8704,168.2791,174.0036,5.331449,0.0800638,0.47609612,117.4162,07/27.0/2020,2000,g 12.5,4.0
# From MPC105543
P/2016 S1 (PANSTARRS),e,94.6589,227.5288,273.2737,8.279032,0.0413747,0.71008857,50.8424,07/27.0/2020,2000,g 12.0,4.0
# From MPC105238
C/2016 T1 (Matheny),e,129.8481,56.2923,137.4249,124.0443,0.0007134,0.98142348,0.0000,02/01.2870/2017,2000,g 14.5,4.0
# From MPC107685
C/2016 T2 (Matheny),e,81.3790,339.1620,92.2373,99.14013,0.0009985,0.98077343,0.0000,12/29.0910/2016,2000,g 14.5,4.0
# From MPC110082
C/2016 T3 (PANSTARRS),e,22.6780,271.7396,194.6628,132.7967,0.0006441,0.98004794,0.0000,09/06.5120/2017,2000,g 10.5,4.0
# From MPC103847
C/2016 U1 (NEOWISE),h,01/13.9804/2017,46.3693,61.4895,162.8317,1.000405,0.322317,2000,17.0,4.0
# From MPC106345
C/2016 VZ18 (PANSTARRS),e,23.9806,98.9208,36.4199,167.5697,0.0004544,0.99454344,0.0000,03/05.9126/2017,2000,g 19.5,4.0
# From MPC106345
P/2016 WM48 (Lemmon),e,117.4292,59.9020,36.0821,8.167310,0.0422265,0.78401478,52.7378,07/27.0/2020,2000,g 15.0,4.0
# From MPC119995
C/2016 X1 (Lemmon),e,26.4540,256.4178,224.5148,1341,0.0000201,0.99436195,0.0000,04/28.9325/2019,2000,g  6.0,4.0
# From MPC108594
C/2017 A1 (PANSTARRS),e,49.7912,121.0461,2.0446,76.79300,0.0014646,0.97015611,0.0000,05/16.3428/2017,2000,g 13.0,4.0
# From MPC108594
C/2017 A3 (Elenin),e,98.5361,97.9063,304.0306,43.47732,0.0034380,0.91148448,4.3773,07/27.0/2020,2000,g  9.5,4.0
# From MPC114598
C/2017 AB5 (PANSTARRS),e,32.4367,42.6532,78.3466,2549,0.0000077,0.99638474,0.0000,02/15.9777/2018,2000,g  5.5,4.0
# From MPC119995
C/2017 B3 (LINEAR),h,02/02.6370/2019,54.1730,2.1797,284.7847,1.001862,3.922227,2000,6.0,4.0
# From MPC103847
P/2017 B4 (PANSTARRS),e,20.0584,121.4578,11.0197,4.410520,0.1064068,0.36495152,359.9130,01/05.0/2017,2000,g 14.5,4.0
# From MPC104793
C/2017 C1 (NEOWISE),e,65.7518,357.5162,110.1059,20.60340,0.0105389,0.92717224,13.5485,07/27.0/2020,2000,g 18.0,4.0
# From MPC107685
